[{"OBJECT_NAME":"RISAT-2B","OBJECT_ID":"2019-028A","EPOCH":"2026-03-09T20:41:11.920992","MEAN_MOTION":15.01650685,"ECCENTRICITY":0.00079997,"INCLINATION":36.9961,"RA_OF_ASC_NODE":222.9871,"ARG_OF_PERICENTER":294.4328,"MEAN_ANOMALY":65.558,"EPHEMERIS_TYPE":0,"CLASSIFICATION_TYPE":"U","NORAD_CAT_ID":44233,"ELEMENT_SET_NO":999,"REV_AT_EPOCH":37289,"BSTAR":0.00037049954,"MEAN_MOTION_DOT":4.829e-5,"MEAN_MOTION_DDOT":0},{"OBJECT_NAME":"UNKNOWN","OBJECT_ID":"","EPOCH":"2026-03-09T02:53:57.432768","MEAN_MOTION":15.04852502,"ECCENTRICITY":0.0007482,"INCLINATION":86.6587,"RA_OF_ASC_NODE":118.2618,"ARG_OF_PERICENTER":183.1315,"MEAN_ANOMALY":176.9875,"EPHEMERIS_TYPE":0,"CLASSIFICATION_TYPE":"U","NORAD_CAT_ID":82402,"ELEMENT_SET_NO":999,"REV_AT_EPOCH":46745,"BSTAR":0.00051144,"MEAN_MOTION_DOT":7.26e-5,"MEAN_MOTION_DDOT":0}]
